OBJECT_NAME,OBJECT_ID,EPOCH,MEAN_MOTION,ECCENTRICITY,INCLINATION,RA_OF_ASC_NODE,ARG_OF_PERICENTER,MEAN_ANOMALY,EPHEMERIS_TYPE,CLASSIFICATION_TYPE,NORAD_CAT_ID,ELEMENT_SET_NO,REV_AT_EPOCH,BSTAR,MEAN_MOTION_DOT,MEAN_MOTION_DDOT
STARLINK-1422,2020-035AR,2026-07-14T08:11:53.210112,15.39981931,.00019639,53.1537,178.2891,78.7175,281.4051,0,U,45696,999,33840,.7704846E-3,.30914E-3,0
STARLINK-1351,2020-035AS,2026-07-14T11:55:12.547200,15.69991272,.0000992,53.0410,121.6019,25.8716,334.2350,0,U,45697,999,33919,.29240965E-3,.35407E-3,0
STARLINK-1400,2020-035AV,2026-07-14T20:00:03.593088,15.74827511,.0001648,53.0413,121.8167,128.8969,231.2197,0,U,45700,999,33921,.31752E-3,.47447E-3,0
STARLINK-1403,2020-035AW,2026-07-14T20:41:33.235008,15.36957886,.0004485,53.1524,163.9574,31.8619,328.2656,0,U,45701,999,33864,.82131E-3,.29858E-3,0
STARLINK-1407,2020-035AY,2026-07-14T20:33:54.838944,15.80729495,.0004672,53.0255,46.3911,169.0089,191.1035,0,U,45703,999,34027,.35136E-3,.68792E-3,0
STARLINK-1423,2020-035BF,2026-07-14T11:57:26.722080,15.73293657,.00030882,53.0407,119.7802,174.3477,185.7577,0,U,45710,999,33920,.29041298E-3,.40511E-3,0
STARLINK-1433,2020-035BG,2026-07-14T20:25:39.645984,15.79089006,.000132,53.0414,115.7357,158.6758,201.4318,0,U,45711,999,33929,.33002E-3,.59783E-3,0
STARLINK-1434,2020-035BH,2026-07-14T13:35:58.661088,15.37410689,.0002981,53.0473,147.3760,88.2468,271.8876,0,U,45712,999,33884,.99149E-3,.36693E-3,0
STARLINK-1465,2020-038B,2026-07-14T17:01:26.687424,15.72525267,.0002294,53.0437,323.1787,313.3876,46.6951,0,U,45731,999,33622,.34881E-3,.47228E-3,0
STARLINK-1471,2020-038F,2026-07-14T14:47:52.382400,15.55857921,.0002327,53.0426,250.8545,346.3532,13.7415,0,U,45735,999,33724,.65505E-3,.45928E-3,0
STARLINK-1480,2020-038M,2026-07-14T15:23:10.233024,15.69062222,.000198,53.0479,318.0910,121.5040,238.6170,0,U,45741,999,33630,.33428E-3,.39034E-3,0
STARLINK-1500,2020-038Q,2026-07-14T14:10:25.690368,15.40996383,.0001986,53.0371,314.5781,325.8888,34.1988,0,U,45744,999,33634,.38302E-3,.15662E-3,0
STARLINK-1504,2020-038S,2026-07-14T11:50:13.382016,15.61593412,.0001927,53.0179,246.5287,350.0260,10.0714,0,U,45746,999,33727,.2695E-3,.23129E-3,0
STARLINK-1506,2020-038T,2026-07-14T16:44:29.652288,15.29309318,.0002472,53.0769,333.4073,319.5819,40.4997,0,U,45747,999,33610,.17897E-3,.4804E-4,0
STARLINK-1464,2020-038X,2026-07-14T15:06:04.552704,15.56142447,.0002064,53.0474,314.4488,118.3092,241.8127,0,U,45751,999,33635,.2899E-3,.20202E-3,0
STARLINK-1477,2020-038AA,2026-07-14T17:39:48.990816,15.20817418,.000093,53.0529,352.6185,45.3723,314.7348,0,U,45754,999,33582,.83429E-3,.18356E-3,0
STARLINK-1478,2020-038AB,2026-07-14T15:09:22.080384,15.75220219,.0003355,53.0448,294.6243,0.3208,359.7812,0,U,45755,999,33661,.34141E-3,.51991E-3,0
STARLINK-1493,2020-038AF,2026-07-14T20:07:57.088416,15.68904642,.0002778,53.0457,304.6860,113.1646,246.9663,0,U,45759,999,33649,.32591E-3,.3779E-3,0
STARLINK-1502,2020-038AL,2026-07-14T14:32:22.320096,15.68099353,.0002642,53.0440,310.0186,4.0240,356.0796,0,U,45764,999,33641,.33071E-3,.37093E-3,0
STARLINK-1470,2020-038AU,2026-07-14T14:09:03.299328,15.38161615,.0001142,53.0425,300.5667,43.6892,316.4200,0,U,45772,999,33654,.50128E-3,.18772E-3,0
STARLINK-1482,2020-038AV,2026-07-14T14:24:59.118336,15.41036749,.0001233,53.1569,316.6891,86.0011,274.1136,0,U,45773,999,33634,.70557E-3,.29282E-3,0
STARLINK-1496,2020-038BC,2026-07-14T12:21:22.855968,15.73383075,.00056651,53.0442,279.5315,358.6306,1.4695,0,U,45780,999,33681,.33055998E-3,.46437E-3,0
STARLINK-1513,2020-038BJ,2026-07-14T15:19:24.660768,15.31675623,.0001386,53.1604,320.5168,69.8243,290.2907,0,U,45786,999,33629,-.41545E-3,-.13225E-3,0
STARLINK-1522,2020-055A,2026-07-14T12:47:33.556992,15.14615918,.0001302,53.0611,272.2692,66.2143,293.8986,0,U,46027,999,32807,.52563E-3,.9532E-4,0
STARLINK-1523,2020-055B,2026-07-14T10:56:51.455904,15.33029191,.00043448,53.1588,257.4854,6.4708,353.6349,0,U,46028,999,32831,.80366674E-3,.25724E-3,0
STARLINK-1526,2020-055C,2026-07-14T11:02:33.840960,15.31710303,.00010217,53.1595,257.5755,81.9074,278.2043,0,U,46029,999,32830,.41865944E-4,.935E-5,0
STARLINK-1555,2020-055F,2026-07-14T10:42:26.250624,15.31720119,.00010406,53.1590,257.6475,51.7499,308.3596,0,U,46032,999,32830,.11759233E-3,.3288E-4,0
STARLINK-1556,2020-055G,2026-07-14T11:49:32.984832,15.31701955,.00010241,53.1585,257.4230,67.8558,292.2552,0,U,46033,999,32828,.29059018E-4,.537E-5,0
STARLINK-1557,2020-055H,2026-07-14T10:29:01.348224,15.31703912,.00012458,53.1590,257.7470,88.9174,271.1970,0,U,46034,999,32827,.6399281E-5,-.167E-5,0
STARLINK-1558,2020-055J,2026-07-14T15:31:02.359776,15.31712346,.0001105,53.1586,256.8398,88.6383,271.4745,0,U,46035,999,32833,.66293E-4,.1693E-4,0
STARLINK-1560,2020-055K,2026-07-14T11:56:16.147968,15.31714305,.00011208,53.1577,257.4894,77.7536,282.3591,0,U,46036,999,32831,.4753035E-5,-.218E-5,0
STARLINK-1569,2020-055N,2026-07-14T15:17:35.307744,15.31711248,.0000999,53.1599,256.7455,77.9234,282.1879,0,U,46039,999,32832,.50535E-4,.1204E-4,0
STARLINK-1582,2020-055S,2026-07-14T12:22:00.053760,15.31711091,.0001287,53.1596,256.6200,83.5956,276.5192,0,U,46043,999,32831,.66183E-4,.169E-4,0
STARLINK-1591,2020-055U,2026-07-14T11:22:42.715200,15.31695757,.00010122,53.1595,257.5066,62.9776,297.1328,0,U,46045,999,32828,.16829722E-4,.157E-5,0
STARLINK-1524,2020-055W,2026-07-14T14:45:45.052128,15.31706585,.0001185,53.1591,243.4543,79.7847,280.3288,0,U,46047,999,32851,.7064E-4,.1828E-4,0
STARLINK-1527,2020-055X,2026-07-14T14:39:02.238048,15.31708037,.0001188,53.1588,243.4560,77.0773,283.0361,0,U,46048,999,32848,.90456E-4,.2443E-4,0
STARLINK-1540,2020-055AA,2026-07-14T11:11:01.114368,15.31705740,.00009538,53.1587,244.3386,88.9657,271.1453,0,U,46051,999,32850,.36579231E-4,.77E-5,0
STARLINK-1541,2020-055AB,2026-07-14T12:16:57.616608,16.06939311,.00104308,53.1459,211.4789,19.7282,340.4153,0,U,46052,999,32892,.6806906E-3,.54274E-2,.15495932E-3
STARLINK-1543,2020-055AC,2026-07-14T12:04:41.670912,15.31699719,.0001052,53.1599,243.9729,82.9469,277.1652,0,U,46053,999,32850,.57201834E-4,.141E-4,0
STARLINK-1548,2020-055AD,2026-07-14T12:24:51.144768,15.31685962,.00010388,53.1591,243.9843,71.7167,288.3947,0,U,46054,999,32850,-.3728356E-5,-.481E-5,0
STARLINK-1554,2020-055AE,2026-07-14T15:05:53.700000,15.31708469,.0001142,53.1579,243.4063,84.9650,275.1482,0,U,46055,999,32852,.83326E-4,.2222E-4,0
STARLINK-1564,2020-055AH,2026-07-14T12:34:55.343424,15.30191044,.00008629,53.1596,245.2367,68.0267,292.0826,0,U,46058,999,32848,.16993844E-4,.144E-5,0
STARLINK-1570,2020-055AJ,2026-07-14T12:38:12.395040,15.31710471,.0001146,53.1587,243.7649,71.7700,288.3426,0,U,46059,999,32846,.59946E-4,.1496E-4,0
STARLINK-1572,2020-055AK,2026-07-14T12:07:33.364992,15.30195581,.00010906,53.1594,245.0693,78.0741,282.0382,0,U,46060,999,32845,.26112004E-4,.414E-5,0
STARLINK-1573,2020-055AL,2026-07-14T12:18:05.309280,15.31701892,.00012374,53.1593,243.7976,84.9823,275.1320,0,U,46061,999,32850,.17716313E-4,.185E-5,0
STARLINK-1577,2020-055AN,2026-07-14T14:32:18.199680,15.31712460,.0001071,53.1577,243.3588,70.9955,289.1163,0,U,46063,999,32851,.10563E-3,.2915E-4,0
STARLINK-1583,2020-055AP,2026-07-14T10:10:40.143936,15.31634093,.00016383,53.1599,244.7092,97.1351,262.9837,0,U,46064,999,32847,.42002518E-3,.12664E-3,0
STARLINK-1536,2020-055AV,2026-07-14T11:46:28.046496,15.31705431,.00010097,53.1583,231.7813,96.2338,263.8779,0,U,46070,999,32866,.69333164E-4,.1787E-4,0
STARLINK-1542,2020-055AY,2026-07-14T13:55:31.116000,15.31713670,.0001216,53.1582,234.3338,70.2718,289.8414,0,U,46073,999,32862,.93898E-4,.2551E-4,0
STARLINK-1549,2020-055AZ,2026-07-14T09:24:49.574880,15.34453164,.00021864,53.0471,231.7556,35.4553,324.6593,0,U,46074,999,32862,.68093053E-3,.22741E-3,0
STARLINK-1551,2020-055BA,2026-07-14T09:59:34.026720,15.31699170,.00012404,53.1589,232.0655,80.3479,279.7662,0,U,46075,999,32864,.44100765E-4,.1004E-4,0
STARLINK-1552,2020-055BB,2026-07-14T11:13:18.745248,15.31711680,.00011554,53.1566,231.4106,79.0555,281.0577,0,U,46076,999,32864,.14909532E-3,.4266E-4,0
STARLINK-1559,2020-055BC,2026-07-14T07:54:29.096352,15.41708506,.00050908,53.0200,198.8199,29.8399,330.2894,0,U,46077,999,32904,.64531124E-3,.27361E-3,0
STARLINK-1566,2020-055BE,2026-07-14T12:53:57.841728,15.31699620,.0001166,53.1589,230.9382,87.7266,272.3868,0,U,46079,999,32867,.27954E-4,.502E-5,0
STARLINK-1568,2020-055BF,2026-07-14T13:22:47.867808,15.57355889,.0003108,53.0546,142.6013,108.1421,251.9929,0,U,46080,999,32989,.45007E-3,.33169E-3,0
STARLINK-1578,2020-055BH,2026-07-14T13:00:17.466048,15.31696839,.000108,53.1593,231.4339,88.1491,271.9634,0,U,46082,999,32866,.44518E-4,.1017E-4,0
STARLINK-1579,2020-055BJ,2026-07-14T09:32:36.896928,15.31710108,.00011762,53.1585,231.6400,73.3117,286.8013,0,U,46083,999,32864,.73114864E-4,.1905E-4,0
STARLINK-1622,2020-057M,2026-07-14T20:57:02.242368,16.11715240,.001339,53.0059,305.8773,323.0985,36.9126,0,U,46128,999,32746,.66572E-3,.729226E-2,.30758E-3
STARLINK-1623,2020-057N,2026-07-14T22:00:03.000096,15.86692129,.0003632,53.0356,348.0946,290.0633,328.1714,0,U,46129,999,605,.65741E-3,.173801E-2,0
STARLINK-1596,2020-057AA,2026-07-14T14:18:16.870176,15.66241326,.0002346,53.0336,336.7799,232.2867,127.7935,0,U,46141,999,32702,.43741E-3,.45692E-3,0
STARLINK-1597,2020-057AB,2026-07-14T22:00:03.000096,15.85176378,.0004238,53.0388,28.0399,244.5391,49.4559,0,U,46142,999,599,.73274E-3,.180181E-2,0
STARLINK-1608,2020-057AF,2026-07-14T19:58:06.896064,15.39546327,.0005145,53.1571,75.4077,105.2467,254.9106,0,U,46146,999,32569,.86569E-3,.3431E-3,0
STARLINK-1595,2020-057AU,2026-07-14T20:00:01.999008,15.81881841,.0003532,53.0380,31.9190,218.7045,157.0003,0,U,46159,999,588,.5056E-3,.105176E-2,0
STARLINK-1598,2020-057AV,2026-07-14T18:17:44.333088,15.80177839,.0003769,53.0424,18.6884,300.3507,59.7141,0,U,46160,999,32769,.52177E-3,.100265E-2,0
